NORAD_CAT_ID,OBJECT_NAME,OBJECT_TYPE,EPOCH,MEAN_MOTION,ECCENTRICITY,INCLINATION,RA_OF_ASC_NODE,ARG_OF_PERICENTER,MEAN_ANOMALY,BSTAR,MEAN_MOTION_DOT,MEAN_MOTION_DDOT,TLE_LINE0,TLE_LINE1,TLE_LINE2,SEMIMAJOR_AXIS,PERIOD,APOGEE,PERIGEE,DECAYED
53744.0,STARLINK-4670,PAYLOAD,2023-05-06 15:23:24,15.08851326,0.0001488,53.2155,244.0823,83.4805,276.6356,0.00028597,4.268e-05,0.0,0 STARLINK-4670,1 53744U 22107AW  23126.64125617  .00004268  00000-0  28597-3 0  9995,2 53744  53.2155 244.0823 0001488  83.4805 276.6356 15.08851326 37888,6917.846,95.437,540.74,538.681,0.0
53744.0,STARLINK-4670,PAYLOAD,2023-05-07 12:03:25,15.08834239,0.0001158,53.2158,240.2153,95.9142,264.1982,6.5457e-05,7.54e-06,0.0,0 STARLINK-4670,1 53744U 22107AW  23127.50238405  .00000754  00000-0  65457-4 0  9994,2 53744  53.2158 240.2153 0001158  95.9142 264.1982 15.08834239 37231,6917.898,95.438,540.564,538.962,0.0
53744.0,STARLINK-4670,PAYLOAD,2023-05-07 13:38:49,15.08839682,0.0001214,53.2156,239.9188,103.4321,256.6807,7.5659e-05,9.16e-06,0.0,0 STARLINK-4670,1 53744U 22107AW  23127.56862364  .00000916  00000-0  75659-4 0  9992,2 53744  53.2156 239.9188 0001214 103.4321 256.6807 15.08839682 38026,6917.881,95.438,540.586,538.907,0.0
53744.0,STARLINK-4670,PAYLOAD,2023-05-07 15:14:12,15.08841176,0.0001339,53.216,239.6189,109.1535,250.9602,9.1529e-05,1.169e-05,0.0,0 STARLINK-4670,1 53744U 22107AW  23127.63486188  .00001169  00000-0  91529-4 0  9991,2 53744  53.2160 239.6189 0001339 109.1535 250.9602 15.08841176 38039,6917.877,95.437,540.668,538.815,0.0
53744.0,STARLINK-4670,PAYLOAD,2023-05-08 00:46:30,15.08843742,0.000113,53.2152,237.8388,103.7852,256.3266,7.2932e-05,8.73e-06,0.0,0 STARLINK-4670,1 53744U 22107AW  23128.03230038  .00000873  00000-0  72932-4 0  9995,2 53744  53.2152 237.8388 0001130 103.7852 256.3266 15.08843742 37319,6917.869,95.437,540.516,538.952,0.0
53744.0,STARLINK-4670,PAYLOAD,2023-05-08 13:29:35,15.08845252,0.0001153,53.2151,235.4599,93.248,266.8644,4.1295e-05,3.7e-06,0.0,0 STARLINK-4670,1 53744U 22107AW  23128.56221946  .00000370  00000-0  41295-4 0  9991,2 53744  53.2151 235.4599 0001153  93.2480 266.8644 15.08845252 38170,6917.864,95.437,540.527,538.932,0.0
53744.0,STARLINK-4670,PAYLOAD,2023-05-09 13:20:22,15.08844306,0.0001222,53.2156,230.9987,98.2784,261.8346,7.109e-05,8.44e-06,0.0,0 STARLINK-4670,1 53744U 22107AW  23129.55581887  .00000844  00000-0  71090-4 0  9996,2 53744  53.2156 230.9987 0001222  98.2784 261.8346 15.08844306 38325,6917.867,95.437,540.578,538.887,0.0
53744.0,STARLINK-4670,PAYLOAD,2023-05-10 11:35:47,15.08839189,0.000127,53.2158,226.8347,95.6891,264.4246,7.3977e-05,8.9e-06,0.0,0 STARLINK-4670,1 53744U 22107AW  23130.48318364  .00000890  00000-0  73977-4 0  9995,2 53744  53.2158 226.8347 0001270  95.6891 264.4246 15.08839189 38460,6917.883,95.438,540.626,538.869,0.0
53744.0,STARLINK-4670,PAYLOAD,2023-05-10 14:46:33,15.0883061,0.0001498,53.2162,226.2384,107.0002,253.1154,0.00029715,4.443e-05,0.0,0 STARLINK-4670,1 53744U 22107AW  23130.61566285  .00004443  00000-0  29715-3 0  9995,2 53744  53.2162 226.2384 0001498 107.0002 253.1154 15.08830610 38489,6917.909,95.438,540.81,538.738,0.0
53744.0,STARLINK-4670,PAYLOAD,2023-05-11 11:26:33,15.08875437,0.0001291,53.217,222.371,114.1458,245.9669,-0.00042171,-7e-05,0.0,0 STARLINK-4670,1 53744U 22107AW  23131.47677473 -.00007000  00000-0 -42171-3 0  9997,2 53744  53.2170 222.3710 0001291 114.1458 245.9669 15.08875437 38614,6917.772,95.435,540.53,538.744,0.0
53744.0,STARLINK-4670,PAYLOAD,2023-05-11 13:01:56,15.08846349,0.000138,53.2173,222.0743,105.7214,254.3931,1.8384e-05,5e-08,0.0,0 STARLINK-4670,1 53744U 22107AW  23131.54302057  .00000005  00000-0  18384-4 0  9994,2 53744  53.2173 222.0743 0001380 105.7214 254.3931 15.08846349 37845,6917.861,95.437,540.681,538.771,0.0
53744.0,STARLINK-4670,PAYLOAD,2023-05-11 22:34:15,15.08841136,0.0001338,53.2165,220.2946,98.024,262.0904,0.00010175,1.332e-05,0.0,0 STARLINK-4670,1 53744U 22107AW  23131.94046229  .00001332  00000-0  10175-3 0  9997,2 53744  53.2165 220.2946 0001338  98.0240 262.0904 15.08841136 38685,6917.877,95.437,540.668,538.816,0.0
53744.0,STARLINK-4670,PAYLOAD,2023-05-12 09:41:58,15.08836605,0.0001448,53.217,218.2181,117.6226,242.4914,-7.0928e-06,-4.01e-06,0.0,0 STARLINK-4670,1 53744U 22107AW  23132.40414960 -.00000401  00000-0 -70928-5 0  9992,2 53744  53.2170 218.2181 0001448 117.6226 242.4914 15.08836605 37972,6917.891,95.438,540.757,538.754,0.0
53744.0,STARLINK-4670,PAYLOAD,2023-05-13 12:43:30,15.08850503,0.0001103,53.2163,213.1605,95.6737,264.4381,7.3467e-05,8.82e-06,0.0,0 STARLINK-4670,1 53744U 22107AW  23133.53021903  .00000882  00000-0  73467-4 0  9999,2 53744  53.2163 213.1605 0001103  95.6737 264.4381 15.08850503 38144,6917.848,95.437,540.476,538.95,0.0
53744.0,STARLINK-4670,PAYLOAD,2023-05-13 22:15:50,15.08842265,9.84e-05,53.2159,211.3737,97.7695,262.3409,1.4301e-05,-6e-07,0.0,0 STARLINK-4670,1 53744U 22107AW  23133.92766458 -.00000060  00000-0  14301-4 0  9994,2 53744  53.2159 211.3737 0000984  97.7695 262.3409 15.08842265 38208,6917.873,95.437,540.419,539.058,0.0
53744.0,STARLINK-4670,PAYLOAD,2023-05-14 12:34:19,15.08830059,0.0001334,53.216,208.6972,79.7301,280.3841,-5.2788e-06,-3.72e-06,0.0,0 STARLINK-4670,1 53744U 22107AW  23134.52383837 -.00000372  00000-0 -52788-5 0  9996,2 53744  53.2160 208.6972 0001334  79.7301 280.3841 15.08830059 38291,6917.911,95.438,540.699,538.853,0.0
53744.0,STARLINK-4670,PAYLOAD,2023-05-14 14:09:42,15.08832024,0.0001398,53.2163,208.396,78.7899,281.325,1.8308e-05,3e-08,0.0,0 STARLINK-4670,1 53744U 22107AW  23134.59007678  .00000003  00000-0  18308-4 0  9997,2 53744  53.2163 208.3960 0001398  78.7899 281.3250 15.08832024 39086,6917.905,95.438,540.737,538.803,0.0
53744.0,STARLINK-4670,PAYLOAD,2023-05-15 04:28:10,15.08844534,0.0001282,53.2161,205.7208,105.0826,255.0308,-1.9038e-05,-5.91e-06,0.0,0 STARLINK-4670,1 53744U 22107AW  23135.18623131 -.00000591  00000-0 -19038-4 0  9996,2 53744  53.2161 205.7208 0001282 105.0826 255.0308 15.08844534 38390,6917.867,95.437,540.618,538.845,0.0
53744.0,STARLINK-4670,PAYLOAD,2023-05-15 12:25:05,15.08846643,0.0001299,53.215,204.2369,85.9175,274.1966,0.00012175,1.651e-05,0.0,0 STARLINK-4670,1 53744U 22107AW  23135.51742730  .00001651  00000-0  12175-3 0  9990,2 53744  53.2150 204.2369 0001299  85.9175 274.1966 15.08846643 39229,6917.86,95.437,540.624,538.826,0.0
53744.0,STARLINK-4670,PAYLOAD,2023-05-16 10:40:30,15.08839458,0.0001415,53.2152,200.0748,83.978,276.1374,0.00015927,2.248e-05,0.0,0 STARLINK-4670,1 53744U 22107AW  23136.44479372  .00002248  00000-0  15927-3 0  9993,2 53744  53.2152 200.0748 0001415  83.9780 276.1374 15.08839458 38585,6917.882,95.438,540.726,538.768,0.0
53744.0,STARLINK-4670,PAYLOAD,2023-05-16 13:51:16,15.08841752,0.0001375,53.215,199.4784,87.8745,272.2405,0.00016415,2.326e-05,0.0,0 STARLINK-4670,1 53744U 22107AW  23136.57727213  .00002326  00000-0  16415-3 0  9997,2 53744  53.2150 199.4784 0001375  87.8745 272.2405 15.08841752 39384,6917.875,95.437,540.691,538.789,0.0
53744.0,STARLINK-4670,PAYLOAD,2023-05-16 21:48:11,15.08842828,0.0001387,53.2151,197.9915,86.8414,273.2737,0.00014268,1.984e-05,0.0,0 STARLINK-4670,1 53744U 22107AW  23136.90847119  .00001984  00000-0  14268-3 0  9995,2 53744  53.2151 197.9915 0001387  86.8414 273.2737 15.08842828 39439,6917.872,95.437,540.696,538.777,0.0
53744.0,STARLINK-4670,PAYLOAD,2023-05-17 13:42:02,15.0884667,0.0001352,53.2155,195.0172,89.1448,270.9698,5.1277e-05,5.28e-06,0.0,0 STARLINK-4670,1 53744U 22107AW  23137.57086679  .00000528  00000-0  51277-4 0  9990,2 53744  53.2155 195.0172 0001352  89.1448 270.9698 15.08846670 38755,6917.86,95.437,540.66,538.79,0.0
53744.0,STARLINK-4670,PAYLOAD,2023-05-17 23:14:22,15.08838847,0.0001303,53.2153,193.2325,102.1303,257.9835,5.2967e-05,5.55e-06,0.0,0 STARLINK-4670,1 53744U 22107AW  23137.96831026  .00000555  00000-0  52967-4 0  9994,2 53744  53.2153 193.2325 0001303 102.1303 257.9835 15.08838847 38817,6917.884,95.438,540.65,538.848,0.0
53744.0,STARLINK-4670,PAYLOAD,2023-05-18 10:22:04,15.08833882,0.0001248,53.215,191.1503,101.8541,258.2592,-3.6755e-06,-3.46e-06,0.0,0 STARLINK-4670,1 53744U 22107AW  23138.43199504 -.00000346  00000-0 -36755-5 0  9993,2 53744  53.2150 191.1503 0001248 101.8541 258.2592 15.08833882 39669,6917.899,95.438,540.627,538.901,0.0
53744.0,STARLINK-4670,PAYLOAD,2023-05-19 08:37:27,15.08842931,0.0001184,53.2152,186.9869,102.9811,257.1313,3.3583e-05,2.47e-06,0.0,0 STARLINK-4670,1 53744U 22107AW  23139.35934898  .00000247  00000-0  33583-4 0  9991,2 53744  53.2152 186.9869 0001184 102.9811 257.1313 15.08842931 39023,6917.871,95.437,540.556,538.917,0.0
53744.0,STARLINK-4670,PAYLOAD,2023-05-19 19:45:09,15.08841989,0.0001125,53.2149,184.9053,90.2501,269.862,3.8109e-05,3.19e-06,0.0,0 STARLINK-4670,1 53744U 22107AW  23139.82302908  .00000319  00000-0  38109-4 0  9993,2 53744  53.2149 184.9053 0001125  90.2501 269.8620 15.08841989 39878,6917.874,95.437,540.518,538.961,0.0
53744.0,STARLINK-4670,PAYLOAD,2023-05-20 03:42:05,15.08834765,0.0001243,53.2162,183.4227,101.2558,258.8574,8.6981e-05,1.097e-05,0.0,0 STARLINK-4670,1 53744U 22107AW  23140.15423393  .00001097  00000-0  86981-4 0  9998,2 53744  53.2162 183.4227 0001243 101.2558 258.8574 15.08834765 39146,6917.896,95.438,540.621,538.901,0.0
53744.0,STARLINK-4670,PAYLOAD,2023-05-20 08:28:15,15.08836093,0.000126,53.2162,182.5308,101.0936,259.0198,9.296e-05,1.192e-05,0.0,0 STARLINK-4670,1 53744U 22107AW  23140.35295361  .00001192  00000-0  92960-4 0  9992,2 53744  53.2162 182.5308 0001260 101.0936 259.0198 15.08836093 39953,6917.892,95.438,540.629,538.886,0.0
53744.0,STARLINK-4670,PAYLOAD,2023-05-21 01:57:29,15.08846944,0.0001329,53.2169,179.2588,99.0159,261.0984,9.0619e-05,1.155e-05,0.0,0 STARLINK-4670,1 53744U 22107AW  23141.08158638  .00001155  00000-0  90619-4 0  9996,2 53744  53.2169 179.2588 0001329  99.0159 261.0984 15.08846944 39280,6917.859,95.437,540.644,538.805,0.0
